[{"OBJECT_NAME":"STARLINK-36907","OBJECT_ID":"2026-037J","EPOCH":"2026-03-15T06:04:57.518400","MEAN_MOTION":15.8197393,"ECCENTRICITY":0.00023002,"INCLINATION":42.9979,"RA_OF_ASC_NODE":164.3724,"ARG_OF_PERICENTER":310.7156,"MEAN_ANOMALY":49.3516,"EPHEMERIS_TYPE":0,"CLASSIFICATION_TYPE":"U","NORAD_CAT_ID":67940,"ELEMENT_SET_NO":999,"REV_AT_EPOCH":413,"BSTAR":0.0018168484,"MEAN_MOTION_DOT":0.00399436,"MEAN_MOTION_DDOT":0},{"OBJECT_NAME":"STARLINK-36927","OBJECT_ID":"2026-037K","EPOCH":"2026-03-15T06:02:47.924448","MEAN_MOTION":15.81960512,"ECCENTRICITY":0.00015274,"INCLINATION":42.9978,"RA_OF_ASC_NODE":164.36,"ARG_OF_PERICENTER":284.4715,"MEAN_ANOMALY":75.5987,"EPHEMERIS_TYPE":0,"CLASSIFICATION_TYPE":"U","NORAD_CAT_ID":67941,"ELEMENT_SET_NO":999,"REV_AT_EPOCH":413,"BSTAR":0.0018159902,"MEAN_MOTION_DOT":0.00398979,"MEAN_MOTION_DDOT":0},{"OBJECT_NAME":"STARLINK-36914","OBJECT_ID":"2026-037L","EPOCH":"2026-03-15T06:07:07.152960","MEAN_MOTION":15.81989403,"ECCENTRICITY":0.00024212,"INCLINATION":42.9976,"RA_OF_ASC_NODE":164.3859,"ARG_OF_PERICENTER":316.0488,"MEAN_ANOMALY":44.0191,"EPHEMERIS_TYPE":0,"CLASSIFICATION_TYPE":"U","NORAD_CAT_ID":67942,"ELEMENT_SET_NO":999,"REV_AT_EPOCH":413,"BSTAR":0.0020745221,"MEAN_MOTION_DOT":0.00459729,"MEAN_MOTION_DDOT":0},{"OBJECT_NAME":"STARLINK-36851","OBJECT_ID":"2026-037M","EPOCH":"2026-03-15T06:06:02.169792","MEAN_MOTION":15.81975845,"ECCENTRICITY":0.0001672,"INCLINATION":42.9976,"RA_OF_ASC_NODE":164.3783,"ARG_OF_PERICENTER":275.45,"MEAN_ANOMALY":84.6181,"EPHEMERIS_TYPE":0,"CLASSIFICATION_TYPE":"U","NORAD_CAT_ID":67943,"ELEMENT_SET_NO":999,"REV_AT_EPOCH":413,"BSTAR":0.0016648704,"MEAN_MOTION_DOT":0.00364516,"MEAN_MOTION_DDOT":0},{"OBJECT_NAME":"STARLINK-36892","OBJECT_ID":"2026-037N","EPOCH":"2026-03-15T06:03:52.810848","MEAN_MOTION":15.81998673,"ECCENTRICITY":0.0001822,"INCLINATION":42.998,"RA_OF_ASC_NODE":164.367,"ARG_OF_PERICENTER":303.431,"MEAN_ANOMALY":56.6387,"EPHEMERIS_TYPE":0,"CLASSIFICATION_TYPE":"U","NORAD_CAT_ID":67944,"ELEMENT_SET_NO":999,"REV_AT_EPOCH":413,"BSTAR":0.0018166337,"MEAN_MOTION_DOT":0.0039987,"MEAN_MOTION_DDOT":0},{"OBJECT_NAME":"STARLINK-36908","OBJECT_ID":"2026-037P","EPOCH":"2026-03-15T06:01:43.279968","MEAN_MOTION":15.82013722,"ECCENTRICITY":0.000119,"INCLINATION":42.998,"RA_OF_ASC_NODE":164.3545,"ARG_OF_PERICENTER":293.5966,"MEAN_ANOMALY":66.478,"EPHEMERIS_TYPE":0,"CLASSIFICATION_TYPE":"U","NORAD_CAT_ID":67945,"ELEMENT_SET_NO":999,"REV_AT_EPOCH":413,"BSTAR":0.0016885133,"MEAN_MOTION_DOT":0.00370626,"MEAN_MOTION_DDOT":0},{"OBJECT_NAME":"STARLINK-36909","OBJECT_ID":"2026-037Q","EPOCH":"2026-03-15T06:00:38.476512","MEAN_MOTION":15.81965034,"ECCENTRICITY":0.00018998,"INCLINATION":42.9983,"RA_OF_ASC_NODE":164.3484,"ARG_OF_PERICENTER":297.2019,"MEAN_ANOMALY":62.8659,"EPHEMERIS_TYPE":0,"CLASSIFICATION_TYPE":"U","NORAD_CAT_ID":67946,"ELEMENT_SET_NO":999,"REV_AT_EPOCH":413,"BSTAR":0.0016478776,"MEAN_MOTION_DOT":0.00360435,"MEAN_MOTION_DDOT":0},{"OBJECT_NAME":"STARLINK-36920","OBJECT_ID":"2026-037R","EPOCH":"2026-03-15T05:59:34.003104","MEAN_MOTION":15.82003445,"ECCENTRICITY":0.00022406,"INCLINATION":42.998,"RA_OF_ASC_NODE":164.3417,"ARG_OF_PERICENTER":321.2121,"MEAN_ANOMALY":38.859,"EPHEMERIS_TYPE":0,"CLASSIFICATION_TYPE":"U","NORAD_CAT_ID":67947,"ELEMENT_SET_NO":999,"REV_AT_EPOCH":413,"BSTAR":0.0018162807,"MEAN_MOTION_DOT":0.00399882,"MEAN_MOTION_DDOT":0},{"OBJECT_NAME":"STARLINK-36873","OBJECT_ID":"2026-037S","EPOCH":"2026-03-15T05:58:29.102016","MEAN_MOTION":15.81995465,"ECCENTRICITY":0.00011472,"INCLINATION":42.9977,"RA_OF_ASC_NODE":164.3356,"ARG_OF_PERICENTER":292.5168,"MEAN_ANOMALY":67.5582,"EPHEMERIS_TYPE":0,"CLASSIFICATION_TYPE":"U","NORAD_CAT_ID":67948,"ELEMENT_SET_NO":999,"REV_AT_EPOCH":413,"BSTAR":0.001811647,"MEAN_MOTION_DOT":0.00398667,"MEAN_MOTION_DDOT":0},{"OBJECT_NAME":"STARLINK-36863","OBJECT_ID":"2026-037T","EPOCH":"2026-03-15T05:57:24.062688","MEAN_MOTION":15.81965483,"ECCENTRICITY":0.00015097,"INCLINATION":42.9981,"RA_OF_ASC_NODE":164.3293,"ARG_OF_PERICENTER":271.4331,"MEAN_ANOMALY":88.6367,"EPHEMERIS_TYPE":0,"CLASSIFICATION_TYPE":"U","NORAD_CAT_ID":67949,"ELEMENT_SET_NO":999,"REV_AT_EPOCH":413,"BSTAR":0.0015956306,"MEAN_MOTION_DOT":0.00348512,"MEAN_MOTION_DDOT":0},{"OBJECT_NAME":"STARLINK-36887","OBJECT_ID":"2026-037U","EPOCH":"2026-03-13T23:38:00.172608","MEAN_MOTION":15.82469233,"ECCENTRICITY":0.0001689,"INCLINATION":42.9981,"RA_OF_ASC_NODE":172.0607,"ARG_OF_PERICENTER":286.6573,"MEAN_ANOMALY":73.4114,"EPHEMERIS_TYPE":0,"CLASSIFICATION_TYPE":"U","NORAD_CAT_ID":67950,"ELEMENT_SET_NO":999,"REV_AT_EPOCH":393,"BSTAR":0.0030610012,"MEAN_MOTION_DOT":0.00715143,"MEAN_MOTION_DDOT":0},{"OBJECT_NAME":"STARLINK-36897","OBJECT_ID":"2026-037V","EPOCH":"2026-03-15T05:55:14.836800","MEAN_MOTION":15.81972891,"ECCENTRICITY":0.00014736,"INCLINATION":42.9986,"RA_OF_ASC_NODE":164.3174,"ARG_OF_PERICENTER":255.3844,"MEAN_ANOMALY":104.6865,"EPHEMERIS_TYPE":0,"CLASSIFICATION_TYPE":"U","NORAD_CAT_ID":67951,"ELEMENT_SET_NO":999,"REV_AT_EPOCH":413,"BSTAR":0.0017704542,"MEAN_MOTION_DOT":0.00388718,"MEAN_MOTION_DDOT":0},{"OBJECT_NAME":"STARLINK-36381","OBJECT_ID":"2026-037W","EPOCH":"2026-03-15T05:53:05.444160","MEAN_MOTION":15.81984846,"ECCENTRICITY":0.00016892,"INCLINATION":42.9986,"RA_OF_ASC_NODE":164.3051,"ARG_OF_PERICENTER":302.7178,"MEAN_ANOMALY":57.3531,"EPHEMERIS_TYPE":0,"CLASSIFICATION_TYPE":"U","NORAD_CAT_ID":67952,"ELEMENT_SET_NO":999,"REV_AT_EPOCH":413,"BSTAR":0.0016164046,"MEAN_MOTION_DOT":0.00353584,"MEAN_MOTION_DDOT":0},{"OBJECT_NAME":"STARLINK-36824","OBJECT_ID":"2026-037X","EPOCH":"2026-03-15T06:00:00.999648","MEAN_MOTION":15.77823706,"ECCENTRICITY":0.00012978,"INCLINATION":42.9996,"RA_OF_ASC_NODE":164.3054,"ARG_OF_PERICENTER":267.8585,"MEAN_ANOMALY":107.7941,"EPHEMERIS_TYPE":0,"CLASSIFICATION_TYPE":"U","NORAD_CAT_ID":67953,"ELEMENT_SET_NO":999,"REV_AT_EPOCH":409,"BSTAR":-0.012647456,"MEAN_MOTION_DOT":-0.01912278,"MEAN_MOTION_DDOT":0},{"OBJECT_NAME":"STARLINK-36869","OBJECT_ID":"2026-037Y","EPOCH":"2026-03-14T14:42:55.373760","MEAN_MOTION":15.82123317,"ECCENTRICITY":0.00020266,"INCLINATION":42.9984,"RA_OF_ASC_NODE":168.1671,"ARG_OF_PERICENTER":272.489,"MEAN_ANOMALY":87.575,"EPHEMERIS_TYPE":0,"CLASSIFICATION_TYPE":"U","NORAD_CAT_ID":67954,"ELEMENT_SET_NO":999,"REV_AT_EPOCH":403,"BSTAR":0.0028843037,"MEAN_MOTION_DOT":0.00658621,"MEAN_MOTION_DDOT":0},{"OBJECT_NAME":"STARLINK-36872","OBJECT_ID":"2026-037Z","EPOCH":"2026-03-15T07:20:45.702528","MEAN_MOTION":15.82050412,"ECCENTRICITY":0.00012999,"INCLINATION":42.9983,"RA_OF_ASC_NODE":163.8985,"ARG_OF_PERICENTER":292.775,"MEAN_ANOMALY":67.2984,"EPHEMERIS_TYPE":0,"CLASSIFICATION_TYPE":"U","NORAD_CAT_ID":67955,"ELEMENT_SET_NO":999,"REV_AT_EPOCH":414,"BSTAR":0.0022807399,"MEAN_MOTION_DOT":0.00509947,"MEAN_MOTION_DDOT":0}]
